start=new Date('2023-02-17T00:00:00.000Z').valueOf();
sats=[{"APOAPSIS":"540.937","PERIOD":"95.440","EPHEMERIS_TYPE":"0","LAUNCH_DATE":"2022-03-09","TLE_LINE1":"1 51963U 22025H   23047.59887488 -.00029815  00000-0 -18646-2 0  9992","SEMIMAJOR_AXIS":"6917.976","NORAD_CAT_ID":"51963","MEAN_ELEMENT_THEORY":"SGP4","ARG_OF_PERICENTER":"86.2961","INCLINATION":"53.2168","DECAY_DATE":null,"OBJECT_TYPE":"PAYLOAD","RCS_SIZE":"LARGE","TIME_SYSTEM":"UTC","ELEMENT_SET_NO":"999","REV_AT_EPOCH":"5364","OBJECT_NAME":"STARLINK-3675","OBJECT_ID":"2022-025H","TLE_LINE2":"2 51963  53.2168   3.9376 0001584  86.2961 273.8212 15.08808666 53640","MEAN_MOTION_DOT":"-0.00029815","SITE":"AFETR","PERIAPSIS":"538.745","FILE":"3798843","BSTAR":"-0.00186460000000","MEAN_MOTION_DDOT":"0.0000000000000","REF_FRAME":"TEME","CENTER_NAME":"EARTH","EPOCH":"2023-02-16T14:22:22.789632","MEAN_MOTION":"15.08808666","GP_ID":"225654829","RA_OF_ASC_NODE":"3.9376","MEAN_ANOMALY":"273.8212","ECCENTRICITY":"0.00015840","CLASSIFICATION_TYPE":"U","COUNTRY_CODE":"US"},{"MEAN_ELEMENT_THEORY":"SGP4","SEMIMAJOR_AXIS":"6917.885","NORAD_CAT_ID":"51964","INCLINATION":"53.2171","ARG_OF_PERICENTER":"89.7868","EPHEMERIS_TYPE":"0","PERIOD":"95.438","APOAPSIS":"541.571","TLE_LINE1":"1 51964U 22025J   23047.83808201  .00000064  00000-0  22161-4 0  9998","LAUNCH_DATE":"2022-03-09","OBJECT_ID":"2022-025J","REV_AT_EPOCH":"5368","OBJECT_NAME":"STARLINK-3690","MEAN_MOTION_DOT":"0.00000064","TLE_LINE2":"2 51964  53.2171   2.8671 0002632  89.7868 270.3425 15.08838357 53682","OBJECT_TYPE":"PAYLOAD","DECAY_DATE":null,"ELEMENT_SET_NO":"999","TIME_SYSTEM":"UTC","RCS_SIZE":"LARGE","FILE":"3799241","REF_FRAME":"TEME","MEAN_MOTION_DDOT":"0.0000000000000","BSTAR":"0.00002216100000","PERIAPSIS":"537.930","SITE":"AFETR","COUNTRY_CODE":"US","GP_ID":"225691478","MEAN_MOTION":"15.08838357","EPOCH":"2023-02-16T20:06:50.285664","CENTER_NAME":"EARTH","CLASSIFICATION_TYPE":"U","ECCENTRICITY":"0.00026320","MEAN_ANOMALY":"270.3425","RA_OF_ASC_NODE":"2.8671"},{"PERIAPSIS":"538.813","SITE":"AFETR","REF_FRAME":"TEME","MEAN_MOTION_DDOT":"0.0000000000000","BSTAR":"-0.00063719000000","FILE":"3799241","CLASSIFICATION_TYPE":"U","ECCENTRICITY":"0.00015010","MEAN_ANOMALY":"266.1578","RA_OF_ASC_NODE":"2.5131","GP_ID":"225690973","MEAN_MOTION":"15.08805338","EPOCH":"2023-02-16T21:58:07.774464","CENTER_NAME":"EARTH","COUNTRY_CODE":"US","TLE_LINE1":"1 51965U 22025K   23047.91536776 -.00010405  00000-0 -63719-3 0  9998","LAUNCH_DATE":"2022-03-09","EPHEMERIS_TYPE":"0","PERIOD":"95.440","APOAPSIS":"540.890","INCLINATION":"53.2178","ARG_OF_PERICENTER":"93.9586","SEMIMAJOR_AXIS":"6917.986","NORAD_CAT_ID":"51965","MEAN_ELEMENT_THEORY":"SGP4","ELEMENT_SET_NO":"999","TIME_SYSTEM":"UTC","RCS_SIZE":"LARGE","OBJECT_TYPE":"PAYLOAD","DECAY_DATE":null,"MEAN_MOTION_DOT":"-0.00010405","TLE_LINE2":"2 51965  53.2178   2.5131 0001501  93.9586 266.1578 15.08805338 53692","OBJECT_ID":"2022-025K","OBJECT_NAME":"STARLINK-3696","REV_AT_EPOCH":"5369"},{"TLE_LINE1":"1 51966U 22025L   23047.56576232 -.00001635  00000-0 -84648-4 0  9991","LAUNCH_DATE":"2022-03-09","EPHEMERIS_TYPE":"0","APOAPSIS":"541.597","PERIOD":"95.438","ARG_OF_PERICENTER":"74.4271","INCLINATION":"53.2173","SEMIMAJOR_AXIS":"6917.898","NORAD_CAT_ID":"51966","MEAN_ELEMENT_THEORY":"SGP4","TIME_SYSTEM":"UTC","ELEMENT_SET_NO":"999","RCS_SIZE":"LARGE","OBJECT_TYPE":"PAYLOAD","DECAY_DATE":null,"TLE_LINE2":"2 51966  53.2173   4.0920 0002652  74.4271 285.7014 15.08834363 52550","MEAN_MOTION_DOT":"-0.00001635","OBJECT_ID":"2022-025L","OBJECT_NAME":"STARLINK-3699","REV_AT_EPOCH":"5255","PERIAPSIS":"537.928","SITE":"AFETR","REF_FRAME":"TEME","BSTAR":"-0.00008464800000","MEAN_MOTION_DDOT":"0.0000000000000","FILE":"3798293","MEAN_ANOMALY":"285.7014","ECCENTRICITY":"0.00026520","CLASSIFICATION_TYPE":"U","RA_OF_ASC_NODE":"4.0920","MEAN_MOTION":"15.08834363","GP_ID":"225640609","EPOCH":"2023-02-16T13:34:41.864448","CENTER_NAME":"EARTH","COUNTRY_CODE":"US"},{"DECAY_DATE":null,"OBJECT_TYPE":"PAYLOAD","RCS_SIZE":"LARGE","ELEMENT_SET_NO":"999","TIME_SYSTEM":"UTC","REV_AT_EPOCH":"5380","OBJECT_NAME":"STARLINK-3695","OBJECT_ID":"2022-025M","MEAN_MOTION_DOT":"0.00119628","TLE_LINE2":"2 51967  53.2034 275.4753 0003779 115.4928 244.6481 15.67346491 53807","PERIOD":"91.875","APOAPSIS":"369.050","EPHEMERIS_TYPE":"0","LAUNCH_DATE":"2022-03-09","TLE_LINE1":"1 51967U 22025M   23047.59785607  .00119628  00000-0  10773-2 0  9999","MEAN_ELEMENT_THEORY":"SGP4","SEMIMAJOR_AXIS":"6744.636","NORAD_CAT_ID":"51967","ARG_OF_PERICENTER":"115.4928","INCLINATION":"53.2034","CENTER_NAME":"EARTH","EPOCH":"2023-02-16T14:20:54.764448","GP_ID":"225641360","MEAN_MOTION":"15.67346491","RA_OF_ASC_NODE":"275.4753","CLASSIFICATION_TYPE":"U","ECCENTRICITY":"0.00037790","MEAN_ANOMALY":"244.6481","COUNTRY_CODE":"US","SITE":"AFETR","PERIAPSIS":"363.952","FILE":"3798293","MEAN_MOTION_DDOT":"0.0000000000000","BSTAR":"0.00107730000000","REF_FRAME":"TEME"},{"COUNTRY_CODE":"US","CENTER_NAME":"EARTH","EPOCH":"2023-02-16T07:07:49.859040","GP_ID":"225642107","MEAN_MOTION":"15.08890548","RA_OF_ASC_NODE":"5.2936","ECCENTRICITY":"0.00013790","CLASSIFICATION_TYPE":"U","MEAN_ANOMALY":"245.8825","FILE":"3798293","MEAN_MOTION_DDOT":"0.0000000000000","BSTAR":"0.00136700000000","REF_FRAME":"TEME","SITE":"AFETR","PERIAPSIS":"538.637","OBJECT_NAME":"STARLINK-3681","REV_AT_EPOCH":"5251","OBJECT_ID":"2022-025N","MEAN_MOTION_DOT":"0.00021565","TLE_LINE2":"2 51968  53.2157   5.2936 0001379 114.2311 245.8825 15.08890548 52517","DECAY_DATE":null,"OBJECT_TYPE":"PAYLOAD","RCS_SIZE":"LARGE","ELEMENT_SET_NO":"999","TIME_SYSTEM":"UTC","SEMIMAJOR_AXIS":"6917.726","NORAD_CAT_ID":"51968","MEAN_ELEMENT_THEORY":"SGP4","ARG_OF_PERICENTER":"114.2311","INCLINATION":"53.2157","PERIOD":"95.434","APOAPSIS":"540.545","EPHEMERIS_TYPE":"0","LAUNCH_DATE":"2022-03-09","TLE_LINE1":"1 51968U 22025N   23047.29710485  .00021565  00000-0  13670-2 0  9990"},{"RA_OF_ASC_NODE":"4.0636","MEAN_ANOMALY":"287.4714","CLASSIFICATION_TYPE":"U","ECCENTRICITY":"0.00017140","EPOCH":"2023-02-16T14:10:41.810016","CENTER_NAME":"EARTH","MEAN_MOTION":"15.08038132","GP_ID":"225640860","COUNTRY_CODE":"US","SITE":"AFETR","PERIAPSIS":"541.011","BSTAR":"-0.00051051000000","MEAN_MOTION_DDOT":"0.0000000000000","REF_FRAME":"TEME","FILE":"3798293","RCS_SIZE":"LARGE","TIME_SYSTEM":"UTC","ELEMENT_SET_NO":"999","DECAY_DATE":null,"OBJECT_TYPE":"PAYLOAD","TLE_LINE2":"2 51969  53.1761   4.0636 0001714  72.6465 287.4714 15.08038132 52558","MEAN_MOTION_DOT":"-0.00008226","OBJECT_NAME":"STARLINK-3680","REV_AT_EPOCH":"5255","OBJECT_ID":"2022-025P","LAUNCH_DATE":"2022-03-09","TLE_LINE1":"1 51969U 22025P   23047.59076169 -.00008226  00000-0 -51051-3 0  9995","APOAPSIS":"543.384","PERIOD":"95.488","EPHEMERIS_TYPE":"0","ARG_OF_PERICENTER":"72.6465","INCLINATION":"53.1761","MEAN_ELEMENT_THEORY":"SGP4","SEMIMAJOR_AXIS":"6920.332","NORAD_CAT_ID":"51969"},{"REV_AT_EPOCH":"5251","OBJECT_NAME":"STARLINK-3677","OBJECT_ID":"2022-025Q","TLE_LINE2":"2 51970  53.2174   5.3282 0001155 109.1717 250.9400 15.08888731 52516","MEAN_MOTION_DOT":"0.00010943","DECAY_DATE":null,"OBJECT_TYPE":"PAYLOAD","RCS_SIZE":"LARGE","TIME_SYSTEM":"UTC","ELEMENT_SET_NO":"999","SEMIMAJOR_AXIS":"6917.731","MEAN_ELEMENT_THEORY":"SGP4","NORAD_CAT_ID":"51970","ARG_OF_PERICENTER":"109.1717","INCLINATION":"53.2174","APOAPSIS":"540.395","PERIOD":"95.434","EPHEMERIS_TYPE":"0","LAUNCH_DATE":"2022-03-09","TLE_LINE1":"1 51970U 22025Q   23047.28973486  .00010943  00000-0  70363-3 0  9995","COUNTRY_CODE":"US","EPOCH":"2023-02-16T06:57:13.091904","CENTER_NAME":"EARTH","MEAN_MOTION":"15.08888731","GP_ID":"225641109","RA_OF_ASC_NODE":"5.3282","MEAN_ANOMALY":"250.9400","CLASSIFICATION_TYPE":"U","ECCENTRICITY":"0.00011550","FILE":"3798293","BSTAR":"0.00070363000000","MEAN_MOTION_DDOT":"0.0000000000000","REF_FRAME":"TEME","SITE":"AFETR","PERIAPSIS":"538.797"},{"RA_OF_ASC_NODE":"2.2915","MEAN_ANOMALY":"279.8270","CLASSIFICATION_TYPE":"U","ECCENTRICITY":"0.00008380","EPOCH":"2023-02-16T23:12:18.488160","CENTER_NAME":"EARTH","MEAN_MOTION":"15.08796201","GP_ID":"225691507","COUNTRY_CODE":"US","SITE":"AFETR","PERIAPSIS":"539.300","BSTAR":"-0.00008543800000","MEAN_MOTION_DDOT":"0.0000000000000","REF_FRAME":"TEME","FILE":"3799243","RCS_SIZE":"MEDIUM","TIME_SYSTEM":"UTC","ELEMENT_SET_NO":"999","DECAY_DATE":null,"OBJECT_TYPE":"PAYLOAD","TLE_LINE2":"2 51971  53.2163   2.2915 0000838  80.2817 279.8270 15.08796201 53720","MEAN_MOTION_DOT":"-0.00001645","OBJECT_NAME":"STARLINK-3669","REV_AT_EPOCH":"5372","OBJECT_ID":"2022-025R","LAUNCH_DATE":"2022-03-09","TLE_LINE1":"1 51971U 22025R   23047.96688065 -.00001645  00000-0 -85438-4 0  9998","APOAPSIS":"540.459","PERIOD":"95.440","EPHEMERIS_TYPE":"0","ARG_OF_PERICENTER":"80.2817","INCLINATION":"53.2163","SEMIMAJOR_AXIS":"6918.014","MEAN_ELEMENT_THEORY":"SGP4","NORAD_CAT_ID":"51971"},{"ARG_OF_PERICENTER":"40.4431","INCLINATION":"53.2149","MEAN_ELEMENT_THEORY":"SGP4","SEMIMAJOR_AXIS":"6917.946","NORAD_CAT_ID":"51972","LAUNCH_DATE":"2022-03-09","TLE_LINE1":"1 51972U 22025S   23047.94847912  .00007942  00000-0  51680-3 0  9990","APOAPSIS":"540.552","PERIOD":"95.439","EPHEMERIS_TYPE":"0","TLE_LINE2":"2 51972  53.2149   2.3751 0001071  40.4431 319.6641 15.08818657 53718","MEAN_MOTION_DOT":"0.00007942","OBJECT_NAME":"STARLINK-3671","REV_AT_EPOCH":"5371","OBJECT_ID":"2022-025S","RCS_SIZE":"LARGE","TIME_SYSTEM":"UTC","ELEMENT_SET_NO":"999","DECAY_DATE":null,"OBJECT_TYPE":"PAYLOAD","BSTAR":"0.00051680000000","MEAN_MOTION_DDOT":"0.0000000000000","REF_FRAME":"TEME","FILE":"3799243","SITE":"AFETR","PERIAPSIS":"539.070","COUNTRY_CODE":"US","RA_OF_ASC_NODE":"2.3751","MEAN_ANOMALY":"319.6641","CLASSIFICATION_TYPE":"U","ECCENTRICITY":"0.00010710","EPOCH":"2023-02-16T22:45:48.595968","CENTER_NAME":"EARTH","MEAN_MOTION":"15.08818657","GP_ID":"225691504"}];
